$$SOE
2460721.500000000, A.D. 2025-Feb-15 00:00:00.0000, 4.361786329685248E+08, 1.565621279377940E+08, 4.714093887372667E+07,
2460728.500000000, A.D. 2025-Feb-22 00:00:00.0000, 4.332329951895134E+08, 1.662941645790016E+08, 4.562475642505314E+07,
2460735.500000000, A.D. 2025-Mar-01 00:00:00.0000, 4.300798814868675E+08, 1.759465759500140E+08, 4.408672042385702E+07,
2460742.500000000, A.D. 2025-Mar-08 00:00:00.0000, 4.267214311735196E+08, 1.855149984235328E+08, 4.252763147223573E+07,
2460749.500000000, A.D. 2025-Mar-15 00:00:00.0000, 4.231598737061098E+08, 1.949951385247447E+08, 4.094829577315250E+07,
2460756.500000000, A.D. 2025-Mar-22 00:00:00.0000, 4.193975241569143E+08, 2.043827749139044E+08, 3.934952486161441E+07,
2460763.500000000, A.D. 2025-Mar-29 00:00:00.0000, 4.154367800438508E+08, 2.136737580297514E+08, 3.773213503497791E+07,
2460770.500000000, A.D. 2025-Apr-05 00:00:00.0000, 4.112801198462339E+08, 2.228640105320620E+08, 3.609694670867518E+07,
2460777.500000000, A.D. 2025-Apr-12 00:00:00.0000, 4.069301012822530E+08, 2.319495286488193E+08, 3.444478388239059E+07,
2460784.500000000, A.D. 2025-Apr-19 00:00:00.0000, 4.023893591638302E+08, 2.409263835486704E+08, 3.277647366191167E+07,
2460791.500000000, A.D. 2025-Apr-26 00:00:00.0000, 3.976606031034933E+08, 2.497907225376058E+08, 3.109284579520160E+07,
2460798.500000000, A.D. 2025-May-03 00:00:00.0000, 3.927466151897136E+08, 2.585387701010154E+08, 2.939473221386893E+07,
2460805.500000000, A.D. 2025-May-10 00:00:00.0000, 3.876502476618910E+08, 2.671668288018398E+08, 2.768296657816596E+07,
2460812.500000000, A.D. 2025-May-17 00:00:00.0000, 3.823744206242181E+08, 2.756712799959646E+08, 2.595838381887333E+07,
2460819.500000000, A.D. 2025-May-24 00:00:00.0000, 3.769221199749613E+08, 2.840485843127371E+08, 2.422181965578893E+07,
2460826.500000000, A.D. 2025-May-31 00:00:00.0000, 3.712963959718010E+08, 2.922952822136304E+08, 2.247411007997723E+07,
2460833.500000000, A.D. 2025-Jun-07 00:00:00.0000, 3.655003620340927E+08, 3.004079958347327E+08, 2.071609093486315E+07,
2460840.500000000, A.D. 2025-Jun-14 00:00:00.0000, 3.595371914173485E+08, 3.083834314479564E+08, 1.894859775859430E+07,
2460847.500000000, A.D. 2025-Jun-21 00:00:00.0000, 3.534101129790601E+08, 3.162183792740777E+08, 1.717246550924462E+07,
2460854.500000000, A.D. 2025-Jun-28 00:00:00.0000, 3.471224091680409E+08, 3.239097124148027E+08, 1.538852803023583E+07,
2460861.500000000, A.D. 2025-Jul-05 00:00:00.0000, 3.406774147218062E+08, 3.314543870613428E+08, 1.359761757115252E+07,
2460868.500000000, A.D. 2025-Jul-12 00:00:00.0000, 3.340785148817866E+08, 3.388494431763739E+08, 1.180056440743411E+07,
2460875.500000000, A.D. 2025-Jul-19 00:00:00.0000, 3.273291433175081E+08, 3.460920050769868E+08, 9.998196494666994E+06,
2460882.500000000, A.D. 2025-Jul-26 00:00:00.0000, 3.204327799714690E+08, 3.531792818644982E+08, 8.191339133644685E+06,
2460889.500000000, A.D. 2025-Aug-02 00:00:00.0000, 3.133929488918117E+08, 3.601085677247710E+08, 6.380814641949937E+06,
2460896.500000000, A.D. 2025-Aug-09 00:00:00.0000, 3.062132160775362E+08, 3.668772420859200E+08, 4.567442028657824E+06,
2460903.500000000, A.D. 2025-Aug-16 00:00:00.0000, 2.988971874138325E+08, 3.734827695713219E+08, 2.752036659899771E+06,
2460910.500000000, A.D. 2025-Aug-23 00:00:00.0000, 2.914485069901137E+08, 3.799226997658387E+08, 9.354098898531199E+05,
2460917.500000000, A.D. 2025-Aug-30 00:00:00.0000, 2.838708561296139E+08, 3.861946675112519E+08, -8.816313145276010E+05,
2460924.500000000, A.D. 2025-Sep-06 00:00:00.0000, 2.761679517119377E+08, 3.922963947326463E+08, -2.698284543017924E+06,
2460931.500000000, A.D. 2025-Sep-13 00:00:00.0000, 2.683435421162125E+08, 3.982256913156928E+08, -4.513751955000520E+06,
2460938.500000000, A.D. 2025-Sep-20 00:00:00.0000, 2.604014040595956E+08, 4.039804533963782E+08, -6.327240569905430E+06,
2460945.500000000, A.D. 2025-Sep-27 00:00:00.0000, 2.523453413932124E+08, 4.095586621781224E+08, -8.137962678193778E+06,
2460952.500000000, A.D. 2025-Oct-04 00:00:00.0000, 2.441791838399644E+08, 4.149583838163654E+08, -9.945136144036382E+06,
2460959.500000000, A.D. 2025-Oct-11 00:00:00.0000, 2.359067853006703E+08, 4.201777694289877E+08, -1.174798464261124E+07,
2460966.500000000, A.D. 2025-Oct-18 00:00:00.0000, 2.275320220123259E+08, 4.252150549599450E+08, -1.354573788066006E+07,
2460973.500000000, A.D. 2025-Oct-25 00:00:00.0000, 2.190587906980475E+08, 4.300685609090081E+08, -1.533763181247172E+07,
2460980.500000000, A.D. 2025-Nov-01 00:00:00.0000, 2.104910067480795E+08, 4.347366919450284E+08, -1.712290885396928E+07,
2460987.500000000, A.D. 2025-Nov-08 00:00:00.0000, 2.018326024662984E+08, 4.392179363732486E+08, -1.890081810099468E+07,
2460994.500000000, A.D. 2025-Nov-15 00:00:00.0000, 1.930875255298977E+08, 4.435108654000474E+08, -2.067061557052487E+07,
2461001.500000000, A.D. 2025-Nov-22 00:00:00.0000, 1.842597380648493E+08, 4.476141324173384E+08, -2.243156448419288E+07,
2461008.500000000, A.D. 2025-Nov-29 00:00:00.0000, 1.753532161843362E+08, 4.515264734434552E+08, -2.418293548782900E+07,
2461015.500000000, A.D. 2025-Dec-06 00:00:00.0000, 1.663719477125149E+08, 4.552467085842554E+08, -2.592400660956433E+07,
2461022.500000000, A.D. 2025-Dec-13 00:00:00.0000, 1.573199285246533E+08, 4.587737411443681E+08, -2.765406327157712E+07,
2461029.500000000, A.D. 2025-Dec-20 00:00:00.0000, 1.482011609956972E+08, 4.621065554157593E+08, -2.937239859256381E+07,
2461036.500000000, A.D. 2025-Dec-27 00:00:00.0000, 1.390196534840920E+08, 4.652442157375858E+08, -3.107831367119479E+07,
2461043.500000000, A.D. 2026-Jan-03 00:00:00.0000, 1.297794193910817E+08, 4.681858662131284E+08, -3.277111776720622E+07,
2461050.500000000, A.D. 2026-Jan-10 00:00:00.0000, 1.204844759044848E+08, 4.709307304071120E+08, -3.445012844581312E+07,
2461057.500000000, A.D. 2026-Jan-17 00:00:00.0000, 1.111388426591659E+08, 4.734781109344392E+08, -3.611467171445113E+07,
2461064.500000000, A.D. 2026-Jan-24 00:00:00.0000, 1.017465403919807E+08, 4.758273889654200E+08, -3.776408215732533E+07,
2461071.500000000, A.D. 2026-Jan-31 00:00:00.0000, 9.231158961442448E+07, 4.779780236422272E+08, -3.939770307067305E+07,
2461078.500000000, A.D. 2026-Feb-07 00:00:00.0000, 8.283800936409882E+07, 4.799295513511426E+08, -4.101488660917351E+07,
2461085.500000000, A.D. 2026-Feb-14 00:00:00.0000, 7.332981628741238E+07, 4.816815848371762E+08, -4.261499396805555E+07,
2461092.500000000, A.D. 2026-Feb-21 00:00:00.0000, 6.379102444037664E+07, 4.832338127403078E+08, -4.419739558948535E+07,
2461099.500000000, A.D. 2026-Feb-28 00:00:00.0000, 5.422564472265130E+07, 4.845860007089006E+08, -4.576147119981763E+07,
2461106.500000000, A.D. 2026-Mar-07 00:00:00.0000, 4.463768188620962E+07, 4.857379921399446E+08, -4.730660964820856E+07,
2461113.500000000, A.D. 2026-Mar-14 00:00:00.0000, 3.503113189199520E+07, 4.866897062132769E+08, -4.883220899147788E+07,
2461120.500000000, A.D. 2026-Mar-21 00:00:00.0000, 2.540998139616244E+07, 4.874411361209834E+08, -5.033767675241023E+07,
2461127.500000000, A.D. 2026-Mar-28 00:00:00.0000, 1.577820735697334E+07, 4.879923485223358E+08, -5.182243008361432E+07,
2461134.500000000, A.D. 2026-Apr-04 00:00:00.0000, 6.139776158446574E+06, 4.883434832587392E+08, -5.328589586053245E+07,
2461141.500000000, A.D. 2026-Apr-11 00:00:00.0000, -3.501357475714211E+06, 4.884947529689773E+08, -5.472751075813155E+07,
2461148.500000000, A.D. 2026-Apr-18 00:00:00.0000, -1.314125161872313E+07, 4.884464425980355E+08, -5.614672132635333E+07,
2461155.500000000, A.D. 2026-Apr-25 00:00:00.0000, -2.277597828213473E+07, 4.881989088135888E+08, -5.754298406704852E+07,
2461162.500000000, A.D. 2026-May-02 00:00:00.0000, -3.240162453203068E+07, 4.877525792996228E+08, -5.891576551719917E+07,
2461169.500000000, A.D. 2026-May-09 00:00:00.0000, -4.201429345671718E+07, 4.871079518605055E+08, -6.026454235488184E+07,
2461176.500000000, A.D. 2026-May-16 00:00:00.0000, -5.161010460975645E+07, 4.862655934745529E+08, -6.158880155125971E+07,
2461183.500000000, A.D. 2026-May-23 00:00:00.0000, -6.118519387799464E+07, 4.852261403216526E+08, -6.288804049028330E+07,
2461190.500000000, A.D. 2026-May-30 00:00:00.0000, -7.073571485299297E+07, 4.839902991070228E+08, -6.416176684018265E+07,
2461197.500000000, A.D. 2026-Jun-06 00:00:00.0000, -8.025784202233154E+07, 4.825588464072621E+08, -6.540949841533811E+07,
2461204.500000000, A.D. 2026-Jun-13 00:00:00.0000, -8.974777211617626E+07, 4.809326262370499E+08, -6.663076334849156E+07,
2461211.500000000, A.D. 2026-Jun-20 00:00:00.0000, -9.920172411118253E+07, 4.791125487645155E+08, -6.782510028908913E+07,
2461218.500000000, A.D. 2026-Jun-27 00:00:00.0000, -1.086159395897647E+08, 4.770995898359308E+08, -6.899205850035250E+07,
2461225.500000000, A.D. 2026-Jul-04 00:00:00.0000, -1.179866834551401E+08, 4.748947905341173E+08, -7.013119791857706E+07,
2461232.500000000, A.D. 2026-Jul-11 00:00:00.0000, -1.273102447490470E+08, 4.724992566382248E+08, -7.124208920895606E+07,
2461239.500000000, A.D. 2026-Jul-18 00:00:00.0000, -1.365829374802904E+08, 4.699141580105016E+08, -7.232431382464033E+07,
2461246.500000000, A.D. 2026-Jul-25 00:00:00.0000, -1.458011014404900E+08, 4.671407279127499E+08, -7.337746407135621E+07,
2461253.500000000, A.D. 2026-Aug-01 00:00:00.0000, -1.549611029597081E+08, 4.641802622043145E+08, -7.440114318618688E+07,
2461260.500000000, A.D. 2026-Aug-08 00:00:00.0000, -1.640593353878856E+08, 4.610341183856394E+08, -7.539496545334831E+07,
2461267.500000000, A.D. 2026-Aug-15 00:00:00.0000, -1.730922188880807E+08, 4.577037149377986E+08, -7.635855635839766E+07,
2461274.500000000, A.D. 2026-Aug-22 00:00:00.0000, -1.820562003037971E+08, 4.541905321799916E+08, -7.729155261165512E+07,
2461281.500000000, A.D. 2026-Aug-29 00:00:00.0000, -1.909477553896993E+08, 4.504961132731722E+08, -7.819360194347681E+07,
2461288.500000000, A.D. 2026-Sep-05 00:00:00.0000, -1.997633912716337E+08, 4.466220625002820E+08, -7.906436310093747E+07,
$$EOE